$$SOE
2461295.500000000, A.D. 2026-Sep-12 00:00:00.0000, -2.417137273004228E+08, -4.280994646189895E+08, -9.773264188667926E+07,
2461302.500000000, A.D. 2026-Sep-19 00:00:00.0000, -2.334489565306266E+08, -4.318453122982127E+08, -9.540271193502605E+07,
2461309.500000000, A.D. 2026-Sep-26 00:00:00.0000, -2.250935593499339E+08, -4.354235552280730E+08, -9.303574979068425E+07,
2461316.500000000, A.D. 2026-Oct-03 00:00:00.0000, -2.166501613230129E+08, -4.388316097322669E+08, -9.063241848858589E+07,
2461323.500000000, A.D. 2026-Oct-10 00:00:00.0000, -2.081214519582860E+08, -4.420669068472992E+08, -8.819340164537451E+07,
2461330.500000000, A.D. 2026-Oct-17 00:00:00.0000, -1.995101861364966E+08, -4.451268935334510E+08, -8.571940394712985E+07,
2461337.500000000, A.D. 2026-Oct-24 00:00:00.0000, -1.908191855622737E+08, -4.480090340682812E+08, -8.321115165331060E+07,
2461344.500000000, A.D. 2026-Oct-31 00:00:00.0000, -1.820513401378452E+08, -4.507108116931484E+08, -8.066939313090721E+07,
2461351.500000000, A.D. 2026-Nov-07 00:00:00.0000, -1.732096089176385E+08, -4.532297304424312E+08, -7.809489944316095E+07,
2461358.500000000, A.D. 2026-Nov-14 00:00:00.0000, -1.642970204404594E+08, -4.555633162716770E+08, -7.548846493787256E+07,
2461365.500000000, A.D. 2026-Nov-21 00:00:00.0000, -1.553166742480890E+08, -4.577091168060319E+08, -7.285090761230710E+07,
2461372.500000000, A.D. 2026-Nov-28 00:00:00.0000, -1.462717445846348E+08, -4.596647027201340E+08, -7.018306940779310E+07,
2461379.500000000, A.D. 2026-Dec-05 00:00:00.0000, -1.371654826530585E+08, -4.614276714100936E+08, -6.748581681866041E+07,
2461386.500000000, A.D. 2026-Dec-12 00:00:00.0000, -1.280012172604367E+08, -4.629956498514673E+08, -6.476004157542491E+07,
2461393.500000000, A.D. 2026-Dec-19 00:00:00.0000, -1.187823557355801E+08, -4.643662966410110E+08, -6.200666122732586E+07,
2461400.500000000, A.D. 2026-Dec-26 00:00:00.0000, -1.095123852572464E+08, -4.655373040939946E+08, -5.922661968062320E+07,
2461407.500000000, A.D. 2027-Jan-02 00:00:00.0000, -1.001948743125772E+08, -4.665064005916348E+08, -5.642088773201439E+07,
2461414.500000000, A.D. 2027-Jan-09 00:00:00.0000, -9.083347416398095E+07, -4.672713531622205E+08, -5.359046360470670E+07,
2461421.500000000, A.D. 2027-Jan-16 00:00:00.0000, -8.143192028417173E+07, -4.678299702912379E+08, -5.073637348816764E+07,
2461428.500000000, A.D. 2027-Jan-23 00:00:00.0000, -7.199403370851660E+07, -4.681801050046626E+08, -4.785967208752334E+07,
2461435.500000000, A.D. 2027-Jan-30 00:00:00.0000, -6.252372211217476E+07, -4.683196582778386E+08, -4.496144320212778E+07,
2461442.500000000, A.D. 2027-Feb-06 00:00:00.0000, -5.302498018229260E+07, -4.682465824343584E+08, -4.204280034270808E+07,
2461449.500000000, A.D. 2027-Feb-13 00:00:00.0000, -4.350188974010611E+07, -4.679588833192361E+08, -3.910488724322587E+07,
2461456.500000000, A.D. 2027-Feb-20 00:00:00.0000, -3.395862197041927E+07, -4.674546220404144E+08, -3.614887811314741E+07,
2461463.500000000, A.D. 2027-Feb-27 00:00:00.0000, -2.439944035463295E+07, -4.667319194950874E+08, -3.317597801859355E+07,
2461470.500000000, A.D. 2027-Mar-06 00:00:00.0000, -1.482870128062766E+07, -4.657889617622321E+08, -3.018742350983301E+07,
2461477.500000000, A.D. 2027-Mar-13 00:00:00.0000, -5.250853921370634E+06, -4.646240043157222E+08, -2.718448317826504E+07,
2461484.500000000, A.D. 2027-Mar-20 00:00:00.0000, 4.329559496956374E+06, -4.632353758947705E+08, -2.416845810446218E+07,
2461491.500000000, A.D. 2027-Mar-27 00:00:00.0000, 1.390790324884012E+07, -4.616214825810017E+08, -2.114068225729716E+07,
2461498.500000000, A.D. 2027-Apr-03 00:00:00.0000, 2.347944769918633E+07, -4.597808121289361E+08, -1.810252286320394E+07,
2461505.500000000, A.D. 2027-Apr-10 00:00:00.0000, 3.303936900298646E+07, -4.577119385255435E+08, -1.505538074594045E+07,
2461512.500000000, A.D. 2027-Apr-17 00:00:00.0000, 4.258274895129362E+07, -4.554135267929273E+08, -1.200069063678676E+07,
2461519.500000000, A.D. 2027-Apr-24 00:00:00.0000, 5.210457505736166E+07, -4.528843380975735E+08, -8.939921464099675E+06,
2461526.500000000, A.D. 2027-May-01 00:00:00.0000, 6.159974119650472E+07, -4.501232351401129E+08, -5.874576643511981E+06,
2461533.500000000, A.D. 2027-May-08 00:00:00.0000, 7.106304912028578E+07, -4.471291870778155E+08, -2.806194331316203E+06,
2461540.500000000, A.D. 2027-May-15 00:00:00.0000, 8.048920936125568E+07, -4.439012730246173E+08, 2.636525790815651E+05,
2461547.500000000, A.D. 2027-May-22 00:00:00.0000, 8.987283997837454E+07, -4.404386867155254E+08, 3.333356654319674E+06,
2461554.500000000, A.D. 2027-May-29 00:00:00.0000, 9.920846651480334E+07, -4.367407437976612E+08, 6.401275889166951E+06,
2461561.500000000, A.D. 2027-Jun-05 00:00:00.0000, 1.084905240695630E+08, -4.328068886107289E+08, 9.465733625688374E+06,
2461568.500000000, A.D. 2027-Jun-12 00:00:00.0000, 1.177133594920103E+08, -4.286367000188620E+08, 1.252501864858744E+07,
2461575.500000000, A.D. 2027-Jun-19 00:00:00.0000, 1.268712333845728E+08, -4.242298972208145E+08, 1.557738541658691E+07,
2461582.500000000, A.D. 2027-Jun-26 00:00:00.0000, 1.359583222096943E+08, -4.195863457901287E+08, 1.862105438895953E+07,
2461589.500000000, A.D. 2027-Jul-03 00:00:00.0000, 1.449687206495104E+08, -4.147060639254654E+08, 2.165421244197434E+07,
2461596.500000000, A.D. 2027-Jul-10 00:00:00.0000, 1.538964442714254E+08, -4.095892288885888E+08, 2.467501337876493E+07,
2461603.500000000, A.D. 2027-Jul-17 00:00:00.0000, 1.627354325526986E+08, -4.042361836528010E+08, 2.768157853216939E+07,
2461610.500000000, A.D. 2027-Jul-24 00:00:00.0000, 1.714795524379976E+08, -3.986474438070281E+08, 3.067199744712427E+07,
2461617.500000000, A.D. 2027-Jul-31 00:00:00.0000, 1.801226028591878E+08, -3.928237044616637E+08, 3.364432863036843E+07,
2461624.500000000, A.D. 2027-Aug-07 00:00:00.0000, 1.886583200338701E+08, -3.867658459850900E+08, 3.659660048636676E+07,
2461631.500000000, A.D. 2027-Aug-14 00:00:00.0000, 1.970803812574491E+08, -3.804749388025863E+08, 3.952681263596885E+07,
2461638.500000000, A.D. 2027-Aug-21 00:00:00.0000, 2.053824078219752E+08, -3.739522505968235E+08, 4.243293729183576E+07,
2461645.500000000, A.D. 2027-Aug-28 00:00:00.0000, 2.135579705079927E+08, -3.671992546801666E+08, 4.531292047986229E+07,
2461652.500000000, A.D. 2027-Sep-04 00:00:00.0000, 2.216005964823972E+08, -3.602176370094827E+08, 4.816468342516504E+07,
2461659.500000000, A.D. 2027-Sep-11 00:00:00.0000, 2.295037762189151E+08, -3.530093024755901E+08, 5.098612418202628E+07,
2461666.500000000, A.D. 2027-Sep-18 00:00:00.0000, 2.372609705843465E+08, -3.455763810853670E+08, 5.377511944738039E+07,
2461673.500000000, A.D. 2027-Sep-25 00:00:00.0000, 2.448656183276000E+08, -3.379212340793641E+08, 5.652952653492095E+07,
2461680.500000000, A.D. 2027-Oct-02 00:00:00.0000, 2.523111440526485E+08, -3.300464599202406E+08, 5.924718550902495E+07,
2461687.500000000, A.D. 2027-Oct-09 00:00:00.0000, 2.595909667015007E+08, -3.219549001170146E+08, 6.192592147911461E+07,
2461694.500000000, A.D. 2027-Oct-16 00:00:00.0000, 2.666985086116161E+08, -3.136496448979627E+08, 6.456354704631471E+07,
2461701.500000000, A.D. 2027-Oct-23 00:00:00.0000, 2.736272054071465E+08, -3.051340386938862E+08, 6.715786487962596E+07,
2461708.500000000, A.D. 2027-Oct-30 00:00:00.0000, 2.803705170963532E+08, -2.964116847771630E+08, 6.970667043858880E+07,
2461715.500000000, A.D. 2027-Nov-06 00:00:00.0000, 2.869219392057530E+08, -2.874864478846917E+08, 7.220775504254076E+07,
2461722.500000000, A.D. 2027-Nov-13 00:00:00.0000, 2.932750119538322E+08, -2.783624568558422E+08, 7.465890929857576E+07,
2461729.500000000, A.D. 2027-Nov-20 00:00:00.0000, 2.994233303495296E+08, -2.690441094232544E+08, 7.705792644108891E+07,
2461736.500000000, A.D. 2027-Nov-27 00:00:00.0000, 3.053605568132615E+08, -2.595360761434993E+08, 7.940260567344840E+07,
2461743.500000000, A.D. 2027-Dec-04 00:00:00.0000, 3.110804342725849E+08, -2.498433025060025E+08, 8.169075576744033E+07,
2461750.500000000, A.D. 2027-Dec-11 00:00:00.0000, 3.165767991521765E+08, -2.399710101357883E+08, 8.392019888533013E+07,
2461757.500000000, A.D. 2027-Dec-18 00:00:00.0000, 3.218435944994690E+08, -2.299246973798609E+08, 8.608877456275943E+07,
2461764.500000000, A.D. 2027-Dec-25 00:00:00.0000, 3.268748833617521E+08, -2.197101392309927E+08, 8.819434382860753E+07,
2461771.500000000, A.D. 2028-Jan-01 00:00:00.0000, 3.316648624170508E+08, -2.093333865290628E+08, 9.023479344930069E+07,
$$EOE